{
  "type": "FeatureCollection",
  "features": [
    {
      "type": "Feature",
      "properties": {
        "norad_id": 36148,
        "name": "FENGYUN 1C DEB",
        "group": "fengyun-1c-debris",
        "lat": 2.889720699195981,
        "lon": 31.195109358934843,
        "alt_km": 1087.3234864784981,
        "timestamp": "2025-12-27T10:28:59.082585+00:00",
        "meta_object_name": "FENGYUN 1C DEB",
        "meta_object_id": "1999-025DRV",
        "meta_epoch": "2025-12-19T19:33:59.340096",
        "meta_mean_motion": 13.85003317,
        "meta_eccentricity": 0.02860047,
        "meta_inclination": 98.4226,
        "meta_ra_of_asc_node": 203.9107,
        "meta_arg_of_pericenter": 330.6122,
        "meta_mean_anomaly": 27.9209,
        "meta_ephemeris_type": 0,
        "meta_classification_type": "U",
        "meta_norad_cat_id": 36148,
        "meta_element_set_no": 999,
        "meta_rev_at_epoch": 90342,
        "meta_bstar": 0.0023912593,
        "meta_mean_motion_dot": 3.68e-05,
        "meta_mean_motion_ddot": 0,
        "tle_line1": "1 36148U 99025DRV 25353.81527014  .00003680  00000+0  23913-2 0  9999",
        "tle_line2": "2 36148  98.4226 203.9107 0286004 330.6122  27.9209 13.85003317903422"
      },
      "geometry": {
        "type": "Point",
        "coordinates": [
          31.195109358934843,
          2.889720699195981
        ]
      }
    },
    {
      "type": "Feature",
      "properties": {
        "norad_id": 36152,
        "name": "FENGYUN 1C DEB",
        "group": "fengyun-1c-debris",
        "lat": -74.21045638514516,
        "lon": -172.00930637269803,
        "alt_km": 839.1625306496253,
        "timestamp": "2025-12-27T10:28:59.082595+00:00",
        "meta_object_name": "FENGYUN 1C DEB",
        "meta_object_id": "1999-025DRZ",
        "meta_epoch": "2025-12-18T08:24:14.818464",
        "meta_mean_motion": 14.17273973,
        "meta_eccentricity": 0.00557903,
        "meta_inclination": 98.7554,
        "meta_ra_of_asc_node": 32.0659,
        "meta_arg_of_pericenter": 196.1632,
        "meta_mean_anomaly": 163.7765,
        "meta_ephemeris_type": 0,
        "meta_classification_type": "U",
        "meta_norad_cat_id": 36152,
        "meta_element_set_no": 999,
        "meta_rev_at_epoch": 64236,
        "meta_bstar": 0.00095568478,
        "meta_mean_motion_dot": 1.917e-05,
        "meta_mean_motion_ddot": 0,
        "tle_line1": "1 36152U 99025DRZ 25352.35017151  .00001917  00000+0  95568-3 0  9995",
        "tle_line2": "2 36152  98.7554  32.0659 0055790 196.1632 163.7765 14.17273973642366"
      },
      "geometry": {
        "type": "Point",
        "coordinates": [
          -172.00930637269803,
          -74.21045638514516
        ]
      }
    },
    {
      "type": "Feature",
      "properties": {
        "norad_id": 36160,
        "name": "FENGYUN 1C DEB",
        "group": "fengyun-1c-debris",
        "lat": -45.36578561920572,
        "lon": 13.414294305984527,
        "alt_km": 896.748441031682,
        "timestamp": "2025-12-27T10:28:59.082605+00:00",
        "meta_object_name": "FENGYUN 1C DEB",
        "meta_object_id": "1999-025DSH",
        "meta_epoch": "2025-12-25T08:09:13.972320",
        "meta_mean_motion": 14.13230256,
        "meta_eccentricity": 0.0135692,
        "meta_inclination": 98.139,
        "meta_ra_of_asc_node": 199.8398,
        "meta_arg_of_pericenter": 116.0735,
        "meta_mean_anomaly": 245.4478,
        "meta_ephemeris_type": 0,
        "meta_classification_type": "U",
        "meta_norad_cat_id": 36160,
        "meta_element_set_no": 999,
        "meta_rev_at_epoch": 60230,
        "meta_bstar": 0.00022345,
        "meta_mean_motion_dot": 4.2e-06,
        "meta_mean_motion_ddot": 0,
        "tle_line1": "1 36160U 99025DSH 25359.33974505  .00000420  00000+0  22345-3 0  9995",
        "tle_line2": "2 36160  98.1390 199.8398 0135692 116.0735 245.4478 14.13230256602306"
      },
      "geometry": {
        "type": "Point",
        "coordinates": [
          13.414294305984527,
          -45.36578561920572
        ]
      }
    },
    {
      "type": "Feature",
      "properties": {
        "norad_id": 36163,
        "name": "FENGYUN 1C DEB",
        "group": "fengyun-1c-debris",
        "lat": 80.90174434516848,
        "lon": 113.7149626628396,
        "alt_km": 675.281726054046,
        "timestamp": "2025-12-27T10:28:59.082615+00:00",
        "meta_object_name": "FENGYUN 1C DEB",
        "meta_object_id": "1999-025DSL",
        "meta_epoch": "2025-12-19T12:50:06.955008",
        "meta_mean_motion": 14.59242955,
        "meta_eccentricity": 0.0039086,
        "meta_inclination": 99.0787,
        "meta_ra_of_asc_node": 198.2455,
        "meta_arg_of_pericenter": 50.867,
        "meta_mean_anomaly": 309.5991,
        "meta_ephemeris_type": 0,
        "meta_classification_type": "U",
        "meta_norad_cat_id": 36163,
        "meta_element_set_no": 999,
        "meta_rev_at_epoch": 89286,
        "meta_bstar": 0.0021304,
        "meta_mean_motion_dot": 0.0001012,
        "meta_mean_motion_ddot": 0,
        "tle_line1": "1 36163U 99025DSL 25353.53480272  .00010120  00000+0  21304-2 0  9998",
        "tle_line2": "2 36163  99.0787 198.2455 0039086  50.8670 309.5991 14.59242955892862"
      },
      "geometry": {
        "type": "Point",
        "coordinates": [
          113.7149626628396,
          80.90174434516848
        ]
      }
    },
    {
      "type": "Feature",
      "properties": {
        "norad_id": 36167,
        "name": "FENGYUN 1C DEB",
        "group": "fengyun-1c-debris",
        "lat": 18.793182454092126,
        "lon": -93.76117865748314,
        "alt_km": 776.8568542508592,
        "timestamp": "2025-12-27T10:28:59.082625+00:00",
        "meta_object_name": "FENGYUN 1C DEB",
        "meta_object_id": "1999-025DSQ",
        "meta_epoch": "2025-12-21T23:29:57.430752",
        "meta_mean_motion": 14.49314917,
        "meta_eccentricity": 0.00688049,
        "meta_inclination": 98.8145,
        "meta_ra_of_asc_node": 263.5651,
        "meta_arg_of_pericenter": 216.098,
        "meta_mean_anomaly": 143.5557,
        "meta_ephemeris_type": 0,
        "meta_classification_type": "U",
        "meta_norad_cat_id": 36167,
        "meta_element_set_no": 999,
        "meta_rev_at_epoch": 67413,
        "meta_bstar": 0.00094360862,
        "meta_mean_motion_dot": 3.662e-05,
        "meta_mean_motion_ddot": 0,
        "tle_line1": "1 36167U 99025DSQ 25355.97913693  .00003662  00000+0  94361-3 0  9997",
        "tle_line2": "2 36167  98.8145 263.5651 0068804 216.0980 143.5557 14.49314917674134"
      },
      "geometry": {
        "type": "Point",
        "coordinates": [
          -93.76117865748314,
          18.793182454092126
        ]
      }
    },
    {
      "type": "Feature",
      "properties": {
        "norad_id": 36173,
        "name": "FENGYUN 1C DEB",
        "group": "fengyun-1c-debris",
        "lat": -61.40638927499796,
        "lon": 122.2585353525102,
        "alt_km": 832.9741854522981,
        "timestamp": "2025-12-27T10:28:59.082634+00:00",
        "meta_object_name": "FENGYUN 1C DEB",
        "meta_object_id": "1999-025DSW",
        "meta_epoch": "2025-12-22T02:59:15.796896",
        "meta_mean_motion": 14.25182833,
        "meta_eccentricity": 0.01475243,
        "meta_inclination": 98.2146,
        "meta_ra_of_asc_node": 312.65,
        "meta_arg_of_pericenter": 157.5208,
        "meta_mean_anomaly": 203.2527,
        "meta_ephemeris_type": 0,
        "meta_classification_type": "U",
        "meta_norad_cat_id": 36173,
        "meta_element_set_no": 999,
        "meta_rev_at_epoch": 59224,
        "meta_bstar": 0.00017937593,
        "meta_mean_motion_dot": 4.32e-06,
        "meta_mean_motion_ddot": 0,
        "tle_line1": "1 36173U 99025DSW 25356.12448839  .00000432  00000+0  17938-3 0  9994",
        "tle_line2": "2 36173  98.2146 312.6500 0147524 157.5208 203.2527 14.25182833592240"
      },
      "geometry": {
        "type": "Point",
        "coordinates": [
          122.2585353525102,
          -61.40638927499796
        ]
      }
    },
    {
      "type": "Feature",
      "properties": {
        "norad_id": 36180,
        "name": "FENGYUN 1C DEB",
        "group": "fengyun-1c-debris",
        "lat": -15.867943159162174,
        "lon": 66.85747294102538,
        "alt_km": 676.2507882825876,
        "timestamp": "2025-12-27T10:28:59.082645+00:00",
        "meta_object_name": "FENGYUN 1C DEB",
        "meta_object_id": "1999-025DTD",
        "meta_epoch": "2025-12-05T21:21:22.276224",
        "meta_mean_motion": 14.20680074,
        "meta_eccentricity": 0.02106275,
        "meta_inclination": 98.4572,
        "meta_ra_of_asc_node": 43.7979,
        "meta_arg_of_pericenter": 50.8055,
        "meta_mean_anomaly": 311.1621,
        "meta_ephemeris_type": 0,
        "meta_classification_type": "U",
        "meta_norad_cat_id": 36180,
        "meta_element_set_no": 999,
        "meta_rev_at_epoch": 70486,
        "meta_bstar": 0.00091841135,
        "meta_mean_motion_dot": 2.432e-05,
        "meta_mean_motion_ddot": 0,
        "tle_line1": "1 36180U 99025DTD 25339.88984116  .00002432  00000+0  91841-3 0  9996",
        "tle_line2": "2 36180  98.4572  43.7979 0210627  50.8055 311.1621 14.20680074704867"
      },
      "geometry": {
        "type": "Point",
        "coordinates": [
          66.85747294102538,
          -15.867943159162174
        ]
      }
    }
  ]
}